MEAN_MOTION;ECCENTRICITY;INCLINATION;RA_OF_ASC_NODE;ARG_OF_PERICENTER;MEAN_ANOMALY;BSTAR;MEAN_MOTION_DOT;MEAN_MOTION_DDOT;TYPE
0.98941216;0.0009486;5.7266;62.1516;317.0989;44.064;0;-2.48E-6;0;Intelsat
0.98941063;0.000954;5.7278;62.1492;317.5169;253.173;0;-2.51E-6;0;Intelsat
0.98940862;0.0009589;5.7288;62.1472;317.7478;66.6088;0;-2.52E-6;0;Intelsat
0.98940516;0.0009674;5.7308;62.143;318.4096;63.5984;0;-2.51E-6;0;Intelsat
0.98940352;0.0009726;5.732;62.1405;318.9306;265.9214;0;-2.49E-6;0;Intelsat
0.98940169;0.0009765;5.7329;62.1388;319.2457;60.3906;0;-2.46E-6;0;Intelsat
0.98940011;0.0009815;5.734;62.1366;319.7601;246.9389;0;-2.42E-6;0;Intelsat
0.98939551;0.0009916;5.7371;62.1305;321.0015;53.9537;0;-2.24E-6;0;Intelsat
0.98939551;0.0009916;5.7371;62.1305;321.0015;53.9537;0;-2.24E-6;0;Intelsat
0.98939295;0.0009977;5.7392;62.1264;321.905;50.691;0;-2.08E-6;0;Intelsat
0.98939076;0.0010025;5.7412;62.122;322.8154;47.4243;0;-1.89E-6;0;Intelsat
0.98939044;0.0010027;5.7414;62.1216;322.8598;72.9217;0;-1.88E-6;0;Intelsat
0.98938876;0.0010059;5.7432;62.1172;323.6867;44.178;0;-1.68E-6;0;Intelsat
0.9893874;0.0010083;5.7442;62.1147;324.0671;222.5998;0;-1.57E-6;0;Intelsat
0.98938562;0.0010094;5.7463;62.109;324.9076;244.9707;0;-1.33E-6;0;Intelsat
0.98938526;0.0010089;5.7471;62.1068;325.3112;37.8388;0;-1.22E-6;0;Intelsat
0.98938364;0.001008;5.749;62.1012;325.9642;34.8223;0;-9.8E-7;0;Intelsat
0.98938245;0.0010074;5.7501;62.098;326.3037;238.8409;0;-8.5E-7;0;Intelsat
0.9893821;0.0010064;5.751;62.0956;326.5835;31.8666;0;-7.4E-7;0;Intelsat
0.98938102;0.001005;5.7522;62.092;326.8925;254.2523;0;-6.0E-7;0;Intelsat
0.98938072;0.0010043;5.7529;62.0899;327.0984;28.9506;0;-5.1E-7;0;Intelsat
0.98937979;0.0010026;5.7539;62.0867;327.3787;232.9941;0;-3.8E-7;0;Intelsat
0.98937956;0.0010023;5.7547;62.0843;327.5751;26.1142;0;-2.9E-7;0;Intelsat
0.98937865;0.0009993;5.7565;62.0785;327.9153;23.4192;0;-7.0E-8;0;Intelsat
0.9893781;0.0009961;5.7577;62.0745;328.0456;263.0489;0;5.0E-8;0;Intelsat
0.98937808;0.0009957;5.7583;62.0726;328.1295;20.841;0;1.2E-7;0;Intelsat
0.98937779;0.0009931;5.7593;62.069;328.2165;231.7266;0;2.2E-7;0;Intelsat
0.98937794;0.0009907;5.7612;62.0627;328.389;248.0849;0;3.7E-7;0;Intelsat
0.98937854;0.0009891;5.763;62.0566;328.532;247.6006;0;4.9E-7;0;Intelsat
0.98937958;0.0009882;5.7649;62.0508;328.6503;242.437;0;5.6E-7;0;Intelsat
0.989381;0.0009879;5.7667;62.0451;328.7092;240.6953;0;5.9E-7;0;Intelsat
0.98938294;0.0009885;5.7687;62.0392;328.7268;261.863;0;5.7E-7;0;Intelsat
0.98938294;0.0009885;5.7687;62.0392;328.7268;261.863;0;5.7E-7;0;Intelsat
0.98938361;0.0009892;5.7694;62.0372;328.7557;31.5904;0;5.5E-7;0;Intelsat
0.98938744;0.0009935;5.7724;62.0292;328.9568;233.3509;0;3.9E-7;0;Intelsat
0.98939001;0.0009977;5.7744;62.0245;329.1093;221.7572;0;2.3E-7;0;Intelsat
0.98939022;0.0009982;5.7745;62.0242;329.1153;249.2255;0;2.1E-7;0;Intelsat
0.98939295;0.0010033;5.7764;62.0201;329.3283;228.2868;0;1.0E-8;0;Intelsat
0.98939649;0.0010115;5.7788;62.0153;329.6633;285.3638;0;-2.8E-7;0;Intelsat
0.98939909;0.0010177;5.7804;62.0122;330.0122;222.8714;0;-5.2E-7;0;Intelsat
0.98940237;0.001026;5.7825;62.0086;330.5177;220.0233;0;-8.1E-7;0;Intelsat
0.98940417;0.0010308;5.7836;62.0064;330.7956;64.105;0;-9.9E-7;0;Intelsat
0.98940615;0.0010346;5.7846;62.0047;331.1266;242.582;0;-1.14E-6;0;Intelsat
0.98940966;0.0010423;5.7867;62.001;331.7627;239.6027;0;-1.45E-6;0;Intelsat
0.9894132;0.0010497;5.7888;61.9971;332.5132;236.5201;0;-1.75E-6;0;Intelsat
0.98941653;0.0010562;5.7908;61.9933;333.2612;222.9692;0;-2.02E-6;0;Intelsat
0.98941994;0.0010617;5.7929;61.9892;334.085;230.2419;0;-2.27E-6;0;Intelsat
0.98942284;0.001066;5.7949;61.9851;334.8717;227.1122;0;-2.49E-6;0;Intelsat
0.98942515;0.0010688;5.7969;61.9807;335.6298;224.0079;0;-2.67E-6;0;Intelsat
0.9894267;0.0010697;5.7989;61.9759;336.3589;220.9138;0;-2.81E-6;0;Intelsat
0.98942732;0.0010692;5.8008;61.9709;337.0631;217.8659;0;-2.89E-6;0;Intelsat
0.98942702;0.0010673;5.8025;61.9666;337.6452;160.4718;0;-2.93E-6;0;Intelsat
0.98942684;0.0010674;5.8029;61.9652;337.7628;245.5903;0;-2.93E-6;0;Intelsat
0.98942551;0.0010645;5.8045;61.961;338.2734;185.5256;0;-2.91E-6;0;Intelsat
0.98942526;0.0010645;5.8048;61.9601;338.3341;237.4683;0;-2.9E-6;0;Intelsat
0.98942372;0.0010611;5.8061;61.9566;338.6905;122.3315;0;-2.85E-6;0;Intelsat
0.98942265;0.0010606;5.8067;61.955;338.801;234.6477;0;-2.82E-6;0;Intelsat
0.98941909;0.0010561;5.8085;61.9498;339.2045;231.8895;0;-2.68E-6;0;Intelsat
0.98941474;0.0010511;5.8103;61.9446;339.521;229.2423;0;-2.49E-6;0;Intelsat
0.98940976;0.0010458;5.8121;61.9393;339.7585;226.6505;0;-2.25E-6;0;Intelsat
0.98940432;0.0010409;5.8138;61.934;339.9012;225.3644;0;-1.98E-6;0;Intelsat
0.98939864;0.0010364;5.8156;61.9286;339.9997;221.6694;0;-1.68E-6;0;Intelsat
0.98939777;0.001036;5.8159;61.9279;340.0387;274.5915;0;-1.63E-6;0;Intelsat
0.98939284;0.0010328;5.8174;61.9234;340.0833;219.2006;0;-1.36E-6;0;Intelsat
0.98938952;0.0010316;5.8185;61.9203;340.153;66.3874;0;-1.17E-6;0;Intelsat
0.98938712;0.0010298;5.8193;61.9182;340.1337;216.7977;0;-1.03E-6;0;Intelsat
0.98938658;0.0010297;5.8194;61.9178;340.1388;247.8207;0;-1.0E-6;0;Intelsat
0.98938393;0.0010293;5.8203;61.9154;340.1882;57.8427;0;-8.5E-7;0;Intelsat
0.98938164;0.001028;5.8211;61.9134;340.1716;214.4118;0;-7.1E-7;0;Intelsat
0.98937893;0.0010274;5.8221;61.911;340.138;33.2823;0;-5.5E-7;0;Intelsat
0.98937691;0.0010269;5.8229;61.9089;340.1692;188.4106;0;-4.2E-7;0;Intelsat
0.98937569;0.0010269;5.8233;61.908;340.1521;270.1135;0;-3.5E-7;0;Intelsat
0.98937169;0.0010275;5.8251;61.904;340.2087;235.1835;0;-1.1E-7;0;Intelsat
0.9893679;0.0010294;5.827;61.9;340.3013;232.7015;0;1.3E-7;0;Intelsat
0.98936713;0.0010302;5.8274;61.8991;340.3366;300.4009;0;1.8E-7;0;Intelsat
0.98936508;0.0010327;5.8288;61.8965;340.453;204.6458;0;3.1E-7;0;Intelsat
0.9893621;0.0010407;5.832;61.8909;340.6835;46.4116;0;5.3E-7;0;Intelsat
0.98936215;0.0010502;5.8349;61.8861;341.2476;222.2838;0;6.1E-7;0;Intelsat
0.98936248;0.0010532;5.8358;61.8847;341.4081;17.7938;0;6.1E-7;0;Intelsat
0.98936327;0.001057;5.8368;61.8831;341.6626;195.3934;0;6.1E-7;0;Intelsat
0.98936342;0.0010572;5.8368;61.883;341.693;210.688;0;6.1E-7;0;Intelsat
0.98936491;0.0010624;5.8382;61.8808;342.0295;90.5111;0;5.8E-7;0;Intelsat
0.98936626;0.0010652;5.8389;61.8796;342.2642;231.8494;0;5.5E-7;0;Intelsat
0.98936935;0.0010715;5.8407;61.8765;342.7432;188.1484;0;4.7E-7;0;Intelsat
0.98936972;0.0010718;5.8408;61.8762;342.7937;213.608;0;4.7E-7;0;Intelsat
0.98937423;0.0010779;5.8428;61.8726;343.4516;201.1853;0;3.4E-7;0;Intelsat
0.98937966;0.0010832;5.8447;61.8687;344.1229;193.7321;0;1.8E-7;0;Intelsat
0.98938362;0.0010847;5.8459;61.8664;344.5689;51.4527;0;6.0E-8;0;Intelsat
0.98938555;0.0010867;5.8466;61.8648;344.7548;179.0358;0;-1.0E-8;0;Intelsat
0.98939;0.0010877;5.8478;61.8621;345.2396;48.448;0;-1.5E-7;0;Intelsat
0.98939842;0.0010897;5.8504;61.8561;346.086;172.9747;0;-4.7E-7;0;Intelsat
0.98939932;0.0010901;5.8507;61.8554;346.1719;223.9727;0;-5.1E-7;0;Intelsat
0.98940286;0.0010888;5.8516;61.8531;346.541;42.3674;0;-6.4E-7;0;Intelsat
0.98940881;0.001087;5.8535;61.8482;347.1022;39.5106;0;-8.9E-7;0;Intelsat
0.98941041;0.001086;5.8542;61.8465;347.2656;167.0892;0;-9.8E-7;0;Intelsat
0.98941216;0.0010857;5.8548;61.8449;347.4256;280.6483;0;-1.06E-6;0;Intelsat
0.98941535;0.0010821;5.856;61.8418;347.768;149.9001;0;-1.22E-6;0;Intelsat
0.98941616;0.0010819;5.8563;61.8408;347.8389;215.2271;0;-1.27E-6;0;Intelsat
0.98941979;0.0010768;5.8579;61.8366;348.2621;161.3885;0;-1.47E-6;0;Intelsat
0.9894203;0.0010766;5.8582;61.8359;348.2898;212.4147;0;-1.5E-6;0;Intelsat
0.98942353;0.0010704;5.8599;61.8309;348.6596;209.7001;0;-1.71E-6;0;Intelsat
0.98942584;0.0010634;5.8617;61.8259;348.9605;210.5665;0;-1.9E-6;0;Intelsat
0.98942721;0.001056;5.8636;61.8206;349.161;231.8003;0;-2.06E-6;0;Intelsat
0.98942748;0.0010488;5.8653;61.8155;349.3199;228.3423;0;-2.18E-6;0;Intelsat
0.98942684;0.0010419;5.8671;61.8104;349.3572;225.1794;0;-2.26E-6;0;Intelsat
0.98942632;0.0010395;5.8679;61.8078;349.3528;44.0292;0;-2.29E-6;0;Intelsat
0.9894253;0.0010357;5.8688;61.8053;349.3221;222.8607;0;-2.31E-6;0;Intelsat
0.98942284;0.00103;5.8706;61.8002;349.2883;228.3645;0;-2.32E-6;0;Intelsat
0.98941976;0.0010256;5.8724;61.7955;349.2432;218.199;0;-2.3E-6;0;Intelsat
0.98941657;0.0010224;5.874;61.7914;349.2441;164.7983;0;-2.26E-6;0;Intelsat
0.9894117;0.00102;5.876;61.7868;349.094;199.1028;0;-2.18E-6;0;Intelsat
0.98940645;0.0010191;5.878;61.7826;349.1201;219.514;0;-2.07E-6;0;Intelsat
0.98940066;0.0010204;5.8801;61.7785;349.0611;255.592;0;-1.93E-6;0;Intelsat
0.98939454;0.0010242;5.8823;61.7743;349.0435;305.9001;0;-1.76E-6;0;Intelsat
0.989387;0.0010318;5.8852;61.7693;349.1822;115.4035;0;-1.51E-6;0;Intelsat
0.98938595;0.0010332;5.8857;61.7685;349.26;208.2819;0;-1.47E-6;0;Intelsat
0.98938332;0.0010361;5.8868;61.7667;349.3545;45.9436;0;-1.36E-6;0;Intelsat
0.9893814;0.0010395;5.8877;61.7651;349.5292;224.597;0;-1.26E-6;0;Intelsat
0.98937769;0.0010453;5.8896;61.7617;349.8926;221.8555;0;-1.06E-6;0;Intelsat
0.98937475;0.0010513;5.8915;61.758;350.3695;219.0249;0;-8.4E-7;0;Intelsat
0.98937146;0.001061;5.8954;61.7499;351.4102;224.7792;0;-4.0E-7;0;Intelsat
0.98937165;0.0010615;5.896;61.7485;351.6409;340.7538;0;-3.3E-7;0;Intelsat
0.98937156;0.0010654;5.898;61.7435;352.2482;14.1654;0;-1.2E-7;0;Intelsat
0.98937154;0.0010673;5.8992;61.7405;352.5675;242.3979;0;0;0;Intelsat
0.98937199;0.0010672;5.8996;61.7396;352.6903;312.992;0;3.0E-8;0;Intelsat
0.98937353;0.0010667;5.9017;61.7339;353.3906;7.3703;0;2.1E-7;0;Intelsat
0.98937421;0.0010663;5.9028;61.7309;353.6741;231.2129;0;2.9E-7;0;Intelsat
0.98937587;0.0010633;5.9042;61.7271;354.0818;142.2753;0;3.7E-7;0;Intelsat
0.98937661;0.0010629;5.9048;61.7253;354.2146;263.1412;0;4.0E-7;0;Intelsat
0.98937892;0.0010588;5.9064;61.7206;354.5765;223.5788;0;4.6E-7;0;Intelsat
0.98938202;0.0010544;5.9082;61.7153;354.8451;231.9983;0;4.9E-7;0;Intelsat
0.98938525;0.001047;5.9099;61.7102;355.1475;226.5854;0;4.9E-7;0;Intelsat
0.98938859;0.0010398;5.9116;61.7052;355.3396;205.0995;0;4.5E-7;0;Intelsat
